SMDC ONE 2.4            
1 39469U 13072H   26068.55980652  .00015821  00000+0  65974-3 0  9996
2 39469 120.4883 328.0945 0137633 267.6479  90.8828 15.15767863102719
STARLINK-34205          
1 64741U 25144T   26068.57258781  .00037490  00000+0  12715-2 0  9993
2 64741  53.1600 181.6051 0001140  84.7682 275.3449 15.30199271 39691
